STARLINK-2134
1 17407C 21005BL  21326.09125375  .00008220  00000-0  55057-3 0  3267
2 17407  53.0542 233.3423 0002071  70.7748  64.1486 15.06399581    13
